#aV2012  4 22  0  0  0.00000000     288 DD+AD WGS84 FIT  NGA
## 1685      0.00000000   300.00000000 56039 0.0000000000000
+   31     1  2  3  4  5  6  7  8  9 10 11 12 13 14 15 16 17
+         18 19 20 21 22 23 25 26 27 28 29 30 31 32  0  0  0
+          0  0  0  0  0  0  0  0  0  0  0  0  0  0  0  0  0
+          0  0  0  0  0  0  0  0  0  0  0  0  0  0  0  0  0
+          0  0  0  0  0  0  0  0  0  0  0  0  0  0  0  0  0
++         2  2  2  2  2  2  2  2  2  2  2  2  2  2  2  2  2
++         2  2  2  2  2  2  2  2  2  2  2  2  2  2  2  0  0
++         0  0  0  0  0  0  0  0  0  0  0  0  0  0  0  0  0
++         0  0  0  0  0  0  0  0  0  0  0  0  0  0  0  0  0
++         0  0  0  0  0  0  0  0  0  0  0  0  0  0  0  0  0
%c cc cc ccc ccc cccc cccc cccc cccc ccccc ccccc ccccc ccccc
%c cc cc ccc ccc cccc cccc cccc cccc ccccc ccccc ccccc ccccc
%f  0.0000000  0.000000000  0.00000000000  0.000000000000000
%f  0.0000000  0.000000000  0.00000000000  0.000000000000000
%i    0    0    0    0      0      0      0      0         0
%i    0    0    0    0      0      0      0      0         0
/*      NGA, ST. LOUIS,MO.                                  
/*   EPHEMERIS COMPUTED FROM  1 DAYS OF DATA
/*   EPOCHA SMOOTHER  
/* CCCCCCCCCCCCCCCCCCCCCCCCCCCCCCCCCCCCCCCCCCCCCCCCCCCCCCCCC
*  2012  4 22 16 45  0.00000000                                                 
P  1 -15291.429810   1723.884279  21641.530363    250.837725                    
V  1  -7618.177724 -26424.921926  -3249.763833      0.038876                    
P  2  13580.379675  21236.171813  -9020.757684    387.620471                    
V  2    756.362731  11820.227666  28074.016123      0.013858                    
P  3 -21450.848603 -11085.430993 -11836.985021     39.307727                    
V  3  14507.296283  -1333.577452 -25794.031692      0.049244                    
P  4   6659.132128  25493.047016   1126.814438    161.255875                    
V  4  -4166.695622   -585.537175  31401.756265      0.114578                    
P  5  12606.061199   9055.342424 -21582.197197   -307.691795                    
V  5 -18702.313248  19992.360448  -2415.603015     -0.040345                    
P  6 -18097.599413 -13675.440568 -13923.389008     29.813506                    
V  6  18005.958793    691.093503 -23565.352223     -0.014354                    
P  7  -9044.676212  15871.563923 -19166.249179     74.843165                    
V  7  -7784.714090 -23188.034658 -15755.545408      0.032633                    
P  8  -1692.524412  24344.910687  -9670.263097      1.067456                    
V  8  -4234.076891 -11932.799698 -29656.852776      0.001357                    
P  9  15449.381725   3282.454737  20794.149219    153.248743                    
V  9   7418.937927  26637.117514  -9498.207171      0.026527                    
P 10  -3819.395356  20591.119262 -16350.817499    -36.155795                    
V 10 -16069.800328  12933.323052  20747.422050     -0.010381                    
P 11 -19360.460145  -4223.122041  17439.647220   -254.087773                    
V 11 -10049.339016 -20933.499710 -15559.623059     -0.037240                    
P 12  20670.777563  -6095.327330  15390.554293     64.936885                    
V 12 -12615.864433  15078.090359  23100.588099      0.020931                    
P 13 -16409.039751   8028.682107 -19460.748115    211.870884                    
V 13 -22717.219627  -8678.706574  15601.368903     -0.023201                    
P 14  -2525.153879 -15840.434185  21369.771827    200.838191                    
V 14  25592.370069   7436.328213   8468.760608      0.010504                    
P 15  26186.000038   2437.913173   4440.105135    -91.360302                    
V 15   4844.773226   4186.738846 -30607.081966      0.000458                    
P 16 -11608.422926  -9293.154057 -22012.025003   -232.297709                    
V 16  20045.110012 -19400.794705  -2070.277519     -0.013765                    
P 17    210.139745  15699.957386  21624.764224    133.991082                    
V 17 -26103.699975  -6939.764146   5103.782579     -0.026549                    
P 18  16467.426829 -20388.926318   3182.216151    192.229515                    
V 18   5452.704370    161.723363 -30950.531734      0.018120                    
P 19 -25752.901612  -6904.785912   2407.420785   -258.118270                    
V 19  -2107.552825  -3359.825954 -31281.949830     -0.037237                    
P 20 -21049.167884  11436.444815  11240.542569     63.229128                    
V 20   7109.376366 -13170.445311  26403.267910      0.000257                    
P 21   6484.641882 -19729.218302 -15733.704628   -218.972027                    
V 21   8744.516855  19535.982531 -20859.814385     -0.024630                    
P 22   4851.429772 -21284.083049  15223.590483    143.508642                    
V 22  15336.748690 -11808.223439 -21774.339109      0.003075                    
P 23 -24255.557853   1796.951052 -11072.097057    212.316427                    
V 23 -13002.984435  -5570.347228  27140.941105     -0.036320                    
P 25  19468.147431 -17744.458273   3110.428951     33.236356                    
V 25   -813.584415   4695.557233  31638.230815      0.003595                    
P 26  21504.329602  13513.556509  -9021.181340   -338.828954                    
V 26 -10384.635915  -1887.491930 -29278.612016     -0.527899                    
P 27  16687.405971  10013.409693  18910.186787    380.171248                    
V 27   6483.304837  21571.339779 -17264.268164      0.040265                    
P 28  -7918.867664  21043.758332  14514.203511    136.248064                    
V 28 -13856.588528  10881.432964 -24480.634503      0.040289                    
P 29  18759.023268  -7126.729557 -17306.597525    305.844157                    
V 29  20783.336300   7779.622037  19290.620240      0.036928                    
P 30  -4196.852023 -17409.480283 -19969.019898   -143.803251                    
V 30  15953.942140 -18743.186826  13232.588443     -0.193584                    
P 31  -6628.299841 -25577.096220    600.043313    234.074193                    
V 31   2440.473108   -118.606964  32347.568365      0.042140                    
P 32 -20207.300755   1575.160567  17126.915415   -435.702157                    
V 32  14756.306852 -15845.363496  19574.124608     -0.044196                    
EOF
